[{"OBJECT_NAME":"STARLINK-4043","OBJECT_ID":"2022-062G","EPOCH":"2026-03-09T07:41:35.684160","MEAN_MOTION":15.0883873,"ECCENTRICITY":0.00013473,"INCLINATION":53.2193,"RA_OF_ASC_NODE":36.0934,"ARG_OF_PERICENTER":102.9136,"MEAN_ANOMALY":257.2007,"EPHEMERIS_TYPE":0,"CLASSIFICATION_TYPE":"U","NORAD_CAT_ID":52836,"ELEMENT_SET_NO":999,"REV_AT_EPOCH":20572,"BSTAR":7.4020766e-5,"MEAN_MOTION_DOT":8.9e-6,"MEAN_MOTION_DDOT":0},{"OBJECT_NAME":"ELECTRON KICK STAGE R\/B","OBJECT_ID":"2025-229C","EPOCH":"2026-03-09T11:01:34.584384","MEAN_MOTION":15.04670102,"ECCENTRICITY":0.00392514,"INCLINATION":41.9818,"RA_OF_ASC_NODE":119.4948,"ARG_OF_PERICENTER":118.9737,"MEAN_ANOMALY":241.5033,"EPHEMERIS_TYPE":0,"CLASSIFICATION_TYPE":"U","NORAD_CAT_ID":65973,"ELEMENT_SET_NO":999,"REV_AT_EPOCH":2194,"BSTAR":0.00045211532,"MEAN_MOTION_DOT":6.384e-5,"MEAN_MOTION_DDOT":0}]
